H1 CPF 01  gfz 2021 07 13 00  6941 tandemx   
H2 1003001  6202 36605    2021 07 13 00 59 42 2021 07 18 00 00 42   120 1 1  0 0 0
H9
10 0 59410  12942.000000  0    5222964.365   4137871.455   1742445.467
10 0 59410  13062.000000  0    5468833.753   4100883.420    854500.956
10 0 59410  13182.000000  0    5617812.443   3988762.108    -48485.506
10 0 59410  13302.000000  0    5666056.500   3805226.529   -950619.911
10 0 59410  13422.000000  0    5611577.966   3555304.318  -1836040.128
10 0 59410  13542.000000  0    5454296.682   3245205.760  -2689202.475
10 0 59410  13662.000000  0    5196053.478   2882175.697  -3495159.489
10 0 59410  13782.000000  0    4840586.305   2474327.780  -4239824.306
10 0 59410  13902.000000  0    4393468.098   2030463.722  -4910217.235
10 0 59410  14022.000000  0    3862009.167   1559882.585  -5494686.098
10 0 59410  14142.000000  0    3255128.942   1072186.840  -5983100.214
10 0 59410  14262.000000  0    2583198.775    577088.050  -6367016.035
10 0 59410  14382.000000  0    1857859.572     84216.241  -6639811.056
10 0 59410  14502.000000  0    1091819.889   -397063.132  -6796787.141
10 0 59410  14622.000000  0     298634.916   -857823.264  -6835244.265
10 0 59410  14742.000000  0    -507529.822  -1289737.151  -6754520.172
10 0 59410  14862.000000  0   -1312144.530  -1685223.511  -6556000.423
10 0 59410  14982.000000  0   -2100571.049  -2037577.148  -6243098.098
10 0 59410  15102.000000  0   -2858323.352  -2341081.146  -5821200.751
10 0 59410  15222.000000  0   -3571328.715  -2591099.437  -5297587.875
10 0 59410  15342.000000  0   -4226189.097  -2784149.686  -4681317.845
10 0 59410  15462.000000  0   -4810436.023  -2917953.498  -3983081.981
10 0 59410  15582.000000  0   -5312773.368  -2991462.731  -3215029.005
10 0 59410  15702.000000  0   -5723304.141  -3004861.434  -2390561.056
10 0 59410  15822.000000  0   -6033734.895  -2959542.460  -1524103.265
10 0 59410  15942.000000  0   -6237552.282  -2858059.190   -630851.409
10 0 59410  16062.000000  0   -6330167.142  -2704052.676    273498.431
10 0 59410  16182.000000  0   -6309021.997  -2502155.910   1173032.136
10 0 59410  16302.000000  0   -6173658.194  -2257877.456   2051907.265
10 0 59410  16422.000000  0   -5925738.583  -1977466.759   2894641.694
10 0 59410  16542.000000  0   -5569028.758  -1667765.397   3686393.658
10 0 59410  16662.000000  0   -5109335.331  -1336047.825   4413230.891
10 0 59410  16782.000000  0   -4554401.731   -989855.254   5062378.134
10 0 59410  16902.000000  0   -3913769.465   -636828.648   5622440.129
10 0 59410  17022.000000  0   -3198606.212   -284543.350   6083599.829
10 0 59410  17142.000000  0   -2421502.596     59651.584   6437786.354
10 0 59410  17262.000000  0   -1596243.427    388783.971   6678809.771
10 0 59410  17382.000000  0    -737559.238    696396.879   6802462.921
10 0 59410  17502.000000  0     139137.803    976673.774   6806589.832
10 0 59410  17622.000000  0    1018029.892   1224547.533   6691120.586
10 0 59410  17742.000000  0    1883178.022   1435792.255   6458072.515
10 0 59410  17862.000000  0    2718810.140   1607095.520   6111516.852
10 0 59410  17982.000000  0    3509609.170   1736110.369   5657512.766
10 0 59410  18102.000000  0    4240996.843   1821486.185   5104006.608
10 0 59410  18222.000000  0    4899405.800   1862878.465   4460699.098
10 0 59410  18342.000000  0    5472539.361   1860937.777   3738882.507
10 0 59410  18462.000000  0    5949611.685   1817276.050   2951243.249
10 0 59410  18582.000000  0    6321558.012   1734411.929   2111638.929
10 0 59410  18702.000000  0    6581217.129   1615696.128   1234852.635
10 0 59410  18822.000000  0    6723475.671   1465218.218    336325.891
10 0 59410  18942.000000  0    6745372.703   1287697.939   -568120.649
10 0 59410  19062.000000  0    6646160.867   1088363.007  -1462575.620
10 0 59410  19182.000000  0    6427322.043    872815.633  -2331324.397
10 0 59410  19302.000000  0    6092539.648    646892.539  -3159131.880
10 0 59410  19422.000000  0    5647626.589    416522.863  -3931513.973
10 0 59410  19542.000000  0    5100411.918    187586.537  -4634992.177
10 0 59410  19662.000000  0    4460589.258    -34223.447  -5257324.778
10 0 59410  19782.000000  0    3739533.883   -243530.795  -5787711.869
10 0 59410  19902.000000  0    2950092.205   -435395.556  -6216973.831
10 0 59410  20022.000000  0    2106346.173   -605421.614  -6537699.607
10 0 59410  20142.000000  0    1223360.317   -749849.589  -6744362.246
10 0 59410  20262.000000  0     316915.179   -865634.547  -6833405.403
10 0 59410  20382.000000  0    -596770.868   -950505.912  -6803297.449
10 0 59410  20502.000000  0   -1501324.510  -1003010.022  -6654554.597
10 0 59410  20622.000000  0   -2380504.466  -1022534.457  -6389733.474
10 0 59410  20742.000000  0   -3218486.487  -1009313.728  -6013390.602
10 0 59410  20862.000000  0   -4000142.360   -964416.736  -5532013.283
10 0 59410  20982.000000  0   -4711313.408   -889715.818  -4953919.596
10 0 59410  21102.000000  0   -5339070.177   -787837.518  -4289125.772
10 0 59410  21222.000000  0   -5871954.380   -662096.530  -3549183.940
10 0 59410  21342.000000  0   -6300199.114   -516412.930  -2746990.188
10 0 59410  21462.000000  0   -6615920.126   -355214.288  -1896564.892
10 0 59410  21582.000000  0   -6813274.494   -183325.736  -1012809.841
10 0 59410  21702.000000  0   -6888582.040     -5848.478   -111243.420
10 0 59410  21822.000000  0   -6840401.221    171969.141    792278.629
10 0 59410  21942.000000  0   -6669562.431    344864.402   1681848.835
10 0 59410  22062.000000  0   -6379156.096    507693.479   2541797.323
10 0 59410  22182.000000  0   -5974474.405    655562.140   3356977.133
10 0 59410  22302.000000  0   -5462907.977    783950.488   4113038.571
10 0 59410  22422.000000  0   -4853801.493    888828.221   4796685.870
10 0 59410  22542.000000  0   -4158272.541    966757.560   5395911.855
10 0 59410  22662.000000  0   -3388999.243   1014981.742   5900206.449
10 0 59410  22782.000000  0   -2559980.878   1031497.085   6300737.649
10 0 59410  22902.000000  0   -1686275.961   1015107.371   6590501.620
10 0 59410  23022.000000  0    -783722.896    965459.928   6764438.501
10 0 59410  23142.000000  0     131348.766    883061.908   6819514.084
10 0 59410  23262.000000  0    1042413.100    769276.959   6754768.918
10 0 59410  23382.000000  0    1933044.948    626302.803   6571333.947
10 0 59410  23502.000000  0    2787214.857    457129.644   6272412.281
10 0 59410  23622.000000  0    3589578.203    265479.940   5863227.752
10 0 59410  23742.000000  0    4325753.658     55730.232   5350938.714
10 0 59410  23862.000000  0    4982585.412   -167183.477   4744518.722
10 0 59410  23982.000000  0    5548385.098   -397875.192   4054605.005
10 0 59410  24102.000000  0    6013149.215   -630630.881   3293316.430
10 0 59410  24222.000000  0    6368746.935   -859540.492   2474041.995
10 0 59410  24342.000000  0    6609071.870  -1078636.824   1611202.702
10 0 59410  24462.000000  0    6730153.633  -1282038.100    719993.576
10 0 59410  24582.000000  0    6730229.753  -1464091.361   -183890.024
10 0 59410  24702.000000  0    6609771.981  -1619512.434  -1084538.862
10 0 59410  24822.000000  0    6371466.321  -1743517.899  -1966118.421
10 0 59410  24942.000000  0    6020149.109  -1831946.844  -2813155.460
10 0 59410  25062.000000  0    5562700.031  -1881368.854  -3610814.534
10 0 59410  25182.000000  0    5007896.910  -1889175.708  -4345159.263
10 0 59410  25302.000000  0    4366236.570  -1853654.709  -5003394.088
10 0 59410  25422.000000  0    3649725.379  -1774042.993  -5574082.300
10 0 59410  25542.000000  0    2871645.113  -1650561.342  -6047335.586
10 0 59410  25662.000000  0    2046301.950  -1484426.693  -6414974.070
10 0 59410  25782.000000  0    1188761.760  -1277843.665  -6670657.727
10 0 59410  25902.000000  0     314575.839  -1033976.174  -6809984.722
10 0 59410  26022.000000  0    -560496.713   -756899.482  -6830558.857
10 0 59410  26142.000000  0   -1420766.447   -451533.244  -6732026.007
10 0 59410  26262.000000  0   -2250888.674   -123556.065  -6516079.660
10 0 59410  26382.000000  0   -3036130.789    220697.023  -6186433.870
10 0 59410  26502.000000  0   -3762628.230    574352.502  -5748766.744
10 0 59410  26622.000000  0   -4417628.698    930130.828  -5210633.301
10 0 59410  26742.000000  0   -4989718.444   1280490.611  -4581346.596
10 0 59410  26862.000000  0   -5469028.569   1617784.238  -3871828.842
10 0 59410  26982.000000  0   -5847414.459   1934420.604  -3094430.707
10 0 59410  27102.000000  0   -6118605.443   2223030.676  -2262723.366
10 0 59410  27222.000000  0   -6278320.833   2476633.399  -1391265.002
10 0 59410  27342.000000  0   -6324348.513   2688797.933   -495345.221
10 0 59410  27462.000000  0   -6256583.272   2853797.329    409288.155
10 0 59410  27582.000000  0   -6077021.810   2966749.643   1306713.879
10 0 59410  27702.000000  0   -5789714.892   3023743.293   2181126.334
10 0 59410  27822.000000  0   -5400677.734   3021942.281   3017122.836
10 0 59410  27942.000000  0   -4917762.107   2959669.384   3799982.780
10 0 59410  28062.000000  0   -4350491.624   2836464.053   4515932.961
10 0 59410  28182.000000  0   -3709866.219   2653114.833   5152391.644
10 0 59410  28302.000000  0   -3008141.784   2411666.241   5698189.061
10 0 59410  28422.000000  0   -2258588.213   2115399.791   6143761.321
10 0 59410  28542.000000  0   -1475231.787   1768788.970   6481312.979
10 0 59410  28662.000000  0    -672587.931   1377429.959   6704946.517
10 0 59410  28782.000000  0     134608.596    947949.398   6810758.313
10 0 59410  28902.000000  0     931673.575    487891.272   6796902.457
10 0 59410  29022.000000  0    1704239.372      5584.668   6663620.633
10 0 59410  29142.000000  0    2438512.717   -490006.190   6413238.695
10 0 59410  29262.000000  0    3121520.874   -989447.961   6050129.572
10 0 59410  29382.000000  0    3741343.210  -1483016.481   5580642.090
99
